KUIPER-00286            
1 68590U 26072T   26099.50213942  .00019286  00000+0  52325-3 0  9992
2 68590  51.8723 149.0813 0004280 104.9491 255.1970 15.37620751   819
